{
  "norad_id": 55477,
  "name": "STARLINK-5685",
  "history": [
    {
      "epoch": "2026-03-27T16:45:55.728288Z",
      "apogee_km": 529.6148674378974,
      "perigee_km": 528.9365595094341,
      "latitude_deg": 3.102441843111933e-05,
      "longitude_deg": 138.46580788848476,
      "height_km": 528.7158370591859,
      "semi_major_axis_km": 6907.4127134736655,
      "eccentricity": 4.91e-05,
      "inclination_deg": 43.0011,
      "raan_deg": 215.0776,
      "arg_perigee_deg": 353.5726,
      "mean_anomaly_deg": 6.5114,
      "mean_motion_rev_day": 15.12271103
    },
    {
      "epoch": "2026-03-28T16:33:55.851264Z",
      "apogee_km": 534.4132789437499,
      "perigee_km": 532.1573906936646,
      "latitude_deg": 2.009760158834006e-05,
      "longitude_deg": 135.03355049290866,
      "height_km": 532.9300637906757,
      "semi_major_axis_km": 6911.422334818707,
      "eccentricity": 0.0001632,
      "inclination_deg": 43.0009,
      "raan_deg": 209.6233,
      "arg_perigee_deg": 276.8185,
      "mean_anomaly_deg": 83.2475,
      "mean_motion_rev_day": 15.10955291
    },
    {
      "epoch": "2026-03-30T04:00:01.999584Z",
      "apogee_km": 535.8077392569467,
      "perigee_km": 534.1596512831939,
      "latitude_deg": 37.19762764144051,
      "longitude_deg": 79.88363822758579,
      "height_km": 537.4148575081127,
      "semi_major_axis_km": 6913.1206952700695,
      "eccentricity": 0.0001192,
      "inclination_deg": 43.0004,
      "raan_deg": 201.494,
      "arg_perigee_deg": 248.2117,
      "mean_anomaly_deg": 229.7189,
      "mean_motion_rev_day": 15.10398526
    },
    {
      "epoch": "2026-03-30T06:00:02.000160Z",
      "apogee_km": 535.8308206649253,
      "perigee_km": 533.883844941035,
      "latitude_deg": -21.07109205955868,
      "longitude_deg": 127.64628815432654,
      "height_km": 538.953731175104,
      "semi_major_axis_km": 6912.99433280298,
      "eccentricity": 0.00014082,
      "inclination_deg": 43.0012,
      "raan_deg": 201.0385,
      "arg_perigee_deg": 256.1167,
      "mean_anomaly_deg": 315.4552,
      "mean_motion_rev_day": 15.10439939
    },
    {
      "epoch": "2026-03-30T14:00:03.000384Z",
      "apogee_km": 535.6390807585012,
      "perigee_km": 533.9404363953836,
      "latitude_deg": -29.698746385171596,
      "longitude_deg": 18.686286954592248,
      "height_km": 542.0619856205271,
      "semi_major_axis_km": 6912.926758576942,
      "eccentricity": 0.00012286,
      "inclination_deg": 43.0005,
      "raan_deg": 199.2071,
      "arg_perigee_deg": 267.6185,
      "mean_anomaly_deg": 318.6589,
      "mean_motion_rev_day": 15.10462086
    },
    {
      "epoch": "2026-03-30T22:00:00.999936Z",
      "apogee_km": 536.0927156859907,
      "perigee_km": 533.5607735848807,
      "latitude_deg": -36.74430682956191,
      "longitude_deg": -88.16425437946597,
      "height_km": 544.3045369758136,
      "semi_major_axis_km": 6912.963744635435,
      "eccentricity": 0.00018313,
      "inclination_deg": 43.0009,
      "raan_deg": 197.3731,
      "arg_perigee_deg": 229.6695,
      "mean_anomaly_deg": 11.2115,
      "mean_motion_rev_day": 15.10449964
    },
    {
      "epoch": "2026-03-31T20:00:01.999008Z",
      "apogee_km": 537.1316960640388,
      "perigee_km": 535.844192899377,
      "latitude_deg": -7.0181801198481395,
      "longitude_deg": -109.33593014311342,
      "height_km": 537.6399002212723,
      "semi_major_axis_km": 6914.624944481708,
      "eccentricity": 9.31e-05,
      "inclination_deg": 43.0006,
      "raan_deg": 192.3334,
      "arg_perigee_deg": 297.9788,
      "mean_anomaly_deg": 252.208,
      "mean_motion_rev_day": 15.09905681
    },
    {
      "epoch": "2026-04-01T20:00:01.999008Z",
      "apogee_km": 537.2350224255806,
      "perigee_km": 535.5865942280752,
      "latitude_deg": -32.77001226248019,
      "longitude_deg": -80.00926331322191,
      "height_km": 545.0284198189529,
      "semi_major_axis_km": 6914.547808326827,
      "eccentricity": 0.0001192,
      "inclination_deg": 43.0007,
      "raan_deg": 186.8361,
      "arg_perigee_deg": 285.0957,
      "mean_anomaly_deg": 307.0891,
      "mean_motion_rev_day": 15.09930947
    },
    {
      "epoch": "2026-04-02T14:01:39.137664Z",
      "apogee_km": 536.7620903083916,
      "perigee_km": 535.0102151219562,
      "latitude_deg": 5.389536061394685e-05,
      "longitude_deg": 141.36123721292236,
      "height_km": 536.1100716990416,
      "semi_major_axis_km": 6914.023152715174,
      "eccentricity": 0.00012669,
      "inclination_deg": 43.0005,
      "raan_deg": 182.7053,
      "arg_perigee_deg": 239.4097,
      "mean_anomaly_deg": 120.6624,
      "mean_motion_rev_day": 15.10102817
    },
    {
      "epoch": "2026-04-03T13:50:35.528640Z",
      "apogee_km": 536.9452152628855,
      "perigee_km": 535.8665465734612,
      "latitude_deg": 5.457949304828211e-06,
      "longitude_deg": 137.69324883037407,
      "height_km": 536.3479470784636,
      "semi_major_axis_km": 6914.542880918173,
      "eccentricity": 7.8e-05,
      "inclination_deg": 42.9998,
      "raan_deg": 177.2504,
      "arg_perigee_deg": 252.2711,
      "mean_anomaly_deg": 107.8049,
      "mean_motion_rev_day": 15.09932561
    },
    {
      "epoch": "2026-04-04T05:43:12.142272Z",
      "apogee_km": 536.9288721539051,
      "perigee_km": 535.9745206220286,
      "latitude_deg": 1.0403610573152667e-05,
      "longitude_deg": -104.74724148472978,
      "height_km": 536.3331631246983,
      "semi_major_axis_km": 6914.588696387967,
      "eccentricity": 6.901e-05,
      "inclination_deg": 42.9997,
      "raan_deg": 173.6145,
      "arg_perigee_deg": 257.4482,
      "mean_anomaly_deg": 102.6286,
      "mean_motion_rev_day": 15.09917554
    },
    {
      "epoch": "2026-04-05T11:53:07.632672Z",
      "apogee_km": 537.3138752979357,
      "perigee_km": 535.5936634063355,
      "latitude_deg": 4.976850261398528e-06,
      "longitude_deg": 154.62619158402543,
      "height_km": 536.2974202611321,
      "semi_major_axis_km": 6914.590769352135,
      "eccentricity": 0.00012439,
      "inclination_deg": 43.0015,
      "raan_deg": 166.708,
      "arg_perigee_deg": 265.6541,
      "mean_anomaly_deg": 94.4162,
      "mean_motion_rev_day": 15.09916875
    },
    {
      "epoch": "2026-04-06T05:20:58.382016Z",
      "apogee_km": 537.2677835520608,
      "perigee_km": 535.6489384861397,
      "latitude_deg": 7.673988536030374e-06,
      "longitude_deg": -112.05268757667707,
      "height_km": 536.4317219026569,
      "semi_major_axis_km": 6914.5953610191,
      "eccentricity": 0.00011706,
      "inclination_deg": 43.0011,
      "raan_deg": 162.7078,
      "arg_perigee_deg": 256.0568,
      "mean_anomaly_deg": 104.0147,
      "mean_motion_rev_day": 15.09915371
    },
    {
      "epoch": "2026-04-07T13:06:08.866944Z",
      "apogee_km": 537.2561164748458,
      "perigee_km": 535.5938557733807,
      "latitude_deg": -1.2012146564194359e-05,
      "longitude_deg": 123.07765492187559,
      "height_km": 536.3389932689417,
      "semi_major_axis_km": 6914.561986124113,
      "eccentricity": 0.0001202,
      "inclination_deg": 43.001,
      "raan_deg": 155.4359,
      "arg_perigee_deg": 260.6071,
      "mean_anomaly_deg": 99.4638,
      "mean_motion_rev_day": 15.09926303
    },
    {
      "epoch": "2026-04-07T13:06:08.867808Z",
      "apogee_km": 537.2561164748458,
      "perigee_km": 535.5938557733807,
      "latitude_deg": -1.2012146563392165e-05,
      "longitude_deg": 123.07765131201855,
      "height_km": 536.3389932689407,
      "semi_major_axis_km": 6914.561986124113,
      "eccentricity": 0.0001202,
      "inclination_deg": 43.001,
      "raan_deg": 155.4359,
      "arg_perigee_deg": 260.6071,
      "mean_anomaly_deg": 99.4638,
      "mean_motion_rev_day": 15.09926303
    },
    {
      "epoch": "2026-04-08T04:58:44.624352Z",
      "apogee_km": 537.248386194955,
      "perigee_km": 535.6213874299883,
      "latitude_deg": -1.5490881455749448e-05,
      "longitude_deg": -119.3595687238933,
      "height_km": 536.3522141595394,
      "semi_major_axis_km": 6914.571886812471,
      "eccentricity": 0.00011765,
      "inclination_deg": 43.0005,
      "raan_deg": 151.7997,
      "arg_perigee_deg": 260.1588,
      "mean_anomaly_deg": 99.9124,
      "mean_motion_rev_day": 15.0992306
    },
    {
      "epoch": "2026-04-09T09:33:25.125408Z",
      "apogee_km": 537.3217280392892,
      "perigee_km": 535.5827088508504,
      "latitude_deg": 1.0399986945304797e-05,
      "longitude_deg": 164.2525475364312,
      "height_km": 536.370707162769,
      "semi_major_axis_km": 6914.5892184450695,
      "eccentricity": 0.00012575,
      "inclination_deg": 43.001,
      "raan_deg": 145.2542,
      "arg_perigee_deg": 260.7291,
      "mean_anomaly_deg": 99.3412,
      "mean_motion_rev_day": 15.09917383
    },
    {
      "epoch": "2026-04-10T03:01:16.222080Z",
      "apogee_km": 537.465779375103,
      "perigee_km": 535.4627576796365,
      "latitude_deg": 5.238471423527733e-05,
      "longitude_deg": -102.424941486062,
      "height_km": 536.2003579978102,
      "semi_major_axis_km": 6914.60126852737,
      "eccentricity": 0.00014484,
      "inclination_deg": 43.003,
      "raan_deg": 141.2568,
      "arg_perigee_deg": 272.4455,
      "mean_anomaly_deg": 87.6225,
      "mean_motion_rev_day": 15.09913436
    },
    {
      "epoch": "2026-04-11T18:42:44.486784Z",
      "apogee_km": 537.3500867022785,
      "perigee_km": 535.5094290313345,
      "latitude_deg": -4.725593444822272e-05,
      "longitude_deg": 11.486420327471526,
      "height_km": 536.1653070226789,
      "semi_major_axis_km": 6914.566757866806,
      "eccentricity": 0.0001331,
      "inclination_deg": 43.0017,
      "raan_deg": 132.1661,
      "arg_perigee_deg": 272.6806,
      "mean_anomaly_deg": 87.3886,
      "mean_motion_rev_day": 15.0992474
    }
  ]
}